{
  "links" : {
    "next" : "https://api.nasa.gov/neo/rest/v1/feed?start_date=1999-06-23&end_date=1999-06-23&detailed=true&api_key=t0TVs3DtDT2H8Oy2Zy8m2eVrNsAVKAexjcZXUckd",
    "prev" : "https://api.nasa.gov/neo/rest/v1/feed?start_date=1999-06-21&end_date=1999-06-21&detailed=true&api_key=t0TVs3DtDT2H8Oy2Zy8m2eVrNsAVKAexjcZXUckd",
    "self" : "https://api.nasa.gov/neo/rest/v1/feed?start_date=1999-06-22&end_date=1999-06-22&detailed=true&api_key=t0TVs3DtDT2H8Oy2Zy8m2eVrNsAVKAexjcZXUckd"
  },
  "element_count" : 7,
  "near_earth_objects" : {
    "1999-06-22" : [ {
      "links" : {
        "self" : "https://api.nasa.gov/neo/rest/v1/neo/3336867?api_key=t0TVs3DtDT2H8Oy2Zy8m2eVrNsAVKAexjcZXUckd"
      },
      "neo_reference_id" : "3336867",
      "name" : "(2006 MB)",
      "nasa_jpl_url" : "http://ssd.jpl.nasa.gov/sbdb.cgi?sstr=3336867",
      "absolute_magnitude_h" : 22.6,
      "estimated_diameter" : {
        "kilometers" : {
          "estimated_diameter_min" : 0.0802703167,
          "estimated_diameter_max" : 0.1794898848
        },
        "meters" : {
          "estimated_diameter_min" : 80.2703167283,
          "estimated_diameter_max" : 179.4898847799
        },
        "miles" : {
          "estimated_diameter_min" : 0.049877647,
          "estimated_diameter_max" : 0.1115298092
        },
        "feet" : {
          "estimated_diameter_min" : 263.3540659348,
          "estimated_diameter_max" : 588.8775935812
        }
      },
      "is_potentially_hazardous_asteroid" : false,
      "close_approach_data" : [ {
        "close_approach_date" : "1999-06-22",
        "epoch_date_close_approach" : 930034800000,
        "relative_velocity" : {
          "kilometers_per_second" : "7.9055902618",
          "kilometers_per_hour" : "28460.1249425179",
          "miles_per_hour" : "17684.014856644"
        },
        "miss_distance" : {
          "astronomical" : "0.2582561131",
          "lunar" : "100.4616241455",
          "kilometers" : "38634564",
          "miles" : "24006406"
        },
        "orbiting_body" : "Earth"
      } ],
      "orbital_data" : {
        "orbit_id" : "19",
        "orbit_determination_date" : "2017-04-06 09:08:29",
        "orbit_uncertainty" : "5",
        "minimum_orbit_intersection" : ".0629166",
        "jupiter_tisserand_invariant" : "5.565",
        "epoch_osculation" : "2458000.5",
        "eccentricity" : ".08304171744278538",
        "semi_major_axis" : "1.113856715797869",
        "inclination" : "14.42883020903167",
        "ascending_node_longitude" : "257.6305000334739",
        "orbital_period" : "429.3805998866342",
        "perihelion_distance" : "1.021360141132834",
        "perihelion_argument" : "287.0378725630641",
        "aphelion_distance" : "1.206353290462905",
        "perihelion_time" : "2458114.291274157706",
        "mean_anomaly" : "264.5954598144637",
        "mean_motion" : ".8384170130067539",
        "equinox" : "J2000"
      }
    }, {
      "links" : {
        "self" : "https://api.nasa.gov/neo/rest/v1/neo/3463448?api_key=t0TVs3DtDT2H8Oy2Zy8m2eVrNsAVKAexjcZXUckd"
      },
      "neo_reference_id" : "3463448",
      "name" : "(2009 MN8)",
      "nasa_jpl_url" : "http://ssd.jpl.nasa.gov/sbdb.cgi?sstr=3463448",
      "absolute_magnitude_h" : 22.7,
      "estimated_diameter" : {
        "kilometers" : {
          "estimated_diameter_min" : 0.0766575574,
          "estimated_diameter_max" : 0.1714115092
        },
        "meters" : {
          "estimated_diameter_min" : 76.6575573531,
          "estimated_diameter_max" : 171.4115092306
        },
        "miles" : {
          "estimated_diameter_min" : 0.0476327831,
          "estimated_diameter_max" : 0.1065101409
        },
        "feet" : {
          "estimated_diameter_min" : 251.5011804664,
          "estimated_diameter_max" : 562.3737359442
        }
      },
      "is_potentially_hazardous_asteroid" : false,
      "close_approach_data" : [ {
        "close_approach_date" : "1999-06-22",
        "epoch_date_close_approach" : 930034800000,
        "relative_velocity" : {
          "kilometers_per_second" : "8.6187465463",
          "kilometers_per_hour" : "31027.4875668502",
          "miles_per_hour" : "19279.2741495242"
        },
        "miss_distance" : {
          "astronomical" : "0.0363308617",
          "lunar" : "14.1327047348",
          "kilometers" : "5435019.5",
          "miles" : "3377164.5"
        },
        "orbiting_body" : "Earth"
      } ],
      "orbital_data" : {
        "orbit_id" : "22",
        "orbit_determination_date" : "2017-04-06 09:00:23",
        "orbit_uncertainty" : "6",
        "minimum_orbit_intersection" : ".0273587",
        "jupiter_tisserand_invariant" : "3.432",
        "epoch_osculation" : "2458000.5",
        "eccentricity" : ".5423504551980337",
        "semi_major_axis" : "2.228789864103305",
        "inclination" : "3.514984100599012",
        "ascending_node_longitude" : "282.828334730862",
        "orbital_period" : "1215.352092125266",
        "perihelion_distance" : "1.020004666766114",
        "perihelion_argument" : "325.0909680172658",
        "aphelion_distance" : "3.437575061440497",
        "perihelion_time" : "2457411.755482542397",
        "mean_anomaly" : "174.3922832387669",
        "mean_motion" : ".2962104581319098",
        "equinox" : "J2000"
      }
    }, {
      "links" : {
        "self" : "https://api.nasa.gov/neo/rest/v1/neo/3619728?api_key=t0TVs3DtDT2H8Oy2Zy8m2eVrNsAVKAexjcZXUckd"
      },
      "neo_reference_id" : "3619728",
      "name" : "(2012 XH55)",
      "nasa_jpl_url" : "http://ssd.jpl.nasa.gov/sbdb.cgi?sstr=3619728",
      "absolute_magnitude_h" : 19.0,
      "estimated_diameter" : {
        "kilometers" : {
          "estimated_diameter_min" : 0.4212646106,
          "estimated_diameter_max" : 0.9419763057
        },
        "meters" : {
          "estimated_diameter_min" : 421.2646105562,
          "estimated_diameter_max" : 941.9763057186
        },
        "miles" : {
          "estimated_diameter_min" : 0.2617616123,
          "estimated_diameter_max" : 0.5853167591
        },
        "feet" : {
          "estimated_diameter_min" : 1382.1017848971,
          "estimated_diameter_max" : 3090.4735428537
        }
      },
      "is_potentially_hazardous_asteroid" : false,
      "close_approach_data" : [ {
        "close_approach_date" : "1999-06-22",
        "epoch_date_close_approach" : 930034800000,
        "relative_velocity" : {
          "kilometers_per_second" : "19.3314376638",
          "kilometers_per_hour" : "69593.1755898492",
          "miles_per_hour" : "43242.4929102594"
        },
        "miss_distance" : {
          "astronomical" : "0.2729092367",
          "lunar" : "106.1616897583",
          "kilometers" : "40826640",
          "miles" : "25368498"
        },
        "orbiting_body" : "Earth"
      } ],
      "orbital_data" : {
        "orbit_id" : "22",
        "orbit_determination_date" : "2017-04-06 08:47:46",
        "orbit_uncertainty" : "4",
        "minimum_orbit_intersection" : ".0723948",
        "jupiter_tisserand_invariant" : "3.402",
        "epoch_osculation" : "2458000.5",
        "eccentricity" : ".7076937472314243",
        "semi_major_axis" : "1.972655780319456",
        "inclination" : "28.49980162382593",
        "ascending_node_longitude" : "107.9103020199953",
        "orbital_period" : "1011.988065800937",
        "perihelion_distance" : ".5766196191474509",
        "perihelion_argument" : "77.47282878244877",
        "aphelion_distance" : "3.368691941491461",
        "perihelion_time" : "2458377.194265923278",
        "mean_anomaly" : "225.9965069597418",
        "mean_motion" : ".3557354203728465",
        "equinox" : "J2000"
      }
    } ]
  }
}